{
  "links" : {
    "next" : "https://api.nasa.gov/neo/rest/v1/feed?start_date=2012-05-09&end_date=2012-05-09&detailed=true&api_key=t0TVs3DtDT2H8Oy2Zy8m2eVrNsAVKAexjcZXUckd",
    "prev" : "https://api.nasa.gov/neo/rest/v1/feed?start_date=2012-05-07&end_date=2012-05-07&detailed=true&api_key=t0TVs3DtDT2H8Oy2Zy8m2eVrNsAVKAexjcZXUckd",
    "self" : "https://api.nasa.gov/neo/rest/v1/feed?start_date=2012-05-08&end_date=2012-05-08&detailed=true&api_key=t0TVs3DtDT2H8Oy2Zy8m2eVrNsAVKAexjcZXUckd"
  },
  "element_count" : 5,
  "near_earth_objects" : {
    "2012-05-08" : [ {
      "links" : {
        "self" : "https://api.nasa.gov/neo/rest/v1/neo/3603627?api_key=t0TVs3DtDT2H8Oy2Zy8m2eVrNsAVKAexjcZXUckd"
      },
      "neo_reference_id" : "3603627",
      "name" : "(2012 JN4)",
      "nasa_jpl_url" : "http://ssd.jpl.nasa.gov/sbdb.cgi?sstr=3603627",
      "absolute_magnitude_h" : 23.5,
      "estimated_diameter" : {
        "kilometers" : {
          "estimated_diameter_min" : 0.0530340723,
          "estimated_diameter_max" : 0.1185877909
        },
        "meters" : {
          "estimated_diameter_min" : 53.0340723319,
          "estimated_diameter_max" : 118.5877908577
        },
        "miles" : {
          "estimated_diameter_min" : 0.0329538346,
          "estimated_diameter_max" : 0.0736870142
        },
        "feet" : {
          "estimated_diameter_min" : 173.9963058693,
          "estimated_diameter_max" : 389.0675677576
        }
      },
      "is_potentially_hazardous_asteroid" : false,
      "close_approach_data" : [ {
        "close_approach_date" : "2012-05-08",
        "epoch_date_close_approach" : 1336460400000,
        "relative_velocity" : {
          "kilometers_per_second" : "11.4180059441",
          "kilometers_per_hour" : "41104.8213988446",
          "miles_per_hour" : "25540.9374964099"
        },
        "miss_distance" : {
          "astronomical" : "0.0799222231",
          "lunar" : "31.0897445679",
          "kilometers" : "11956194",
          "miles" : "7429234.5"
        },
        "orbiting_body" : "Earth"
      } ],
      "orbital_data" : {
        "orbit_id" : "10",
        "orbit_determination_date" : "2017-04-06 08:49:52",
        "orbit_uncertainty" : "7",
        "minimum_orbit_intersection" : ".0702016",
        "jupiter_tisserand_invariant" : "5.240",
        "epoch_osculation" : "2458000.5",
        "eccentricity" : ".1389785336284945",
        "semi_major_axis" : "1.195287806467815",
        "inclination" : "20.98806326715381",
        "ascending_node_longitude" : "49.78137613134233",
        "orbital_period" : "477.3172838022077",
        "perihelion_distance" : "1.029168459860898",
        "perihelion_argument" : "127.2158169793003",
        "aphelion_distance" : "1.361407153074732",
        "perihelion_time" : "2457915.729325160958",
        "mean_anomaly" : "63.93534023943079",
        "mean_motion" : ".7542153033561172",
        "equinox" : "J2000"
      }
    }, {
      "links" : {
        "self" : "https://api.nasa.gov/neo/rest/v1/neo/3669254?api_key=t0TVs3DtDT2H8Oy2Zy8m2eVrNsAVKAexjcZXUckd"
      },
      "neo_reference_id" : "3669254",
      "name" : "(2014 HR124)",
      "nasa_jpl_url" : "http://ssd.jpl.nasa.gov/sbdb.cgi?sstr=3669254",
      "absolute_magnitude_h" : 22.8,
      "estimated_diameter" : {
        "kilometers" : {
          "estimated_diameter_min" : 0.0732073989,
          "estimated_diameter_max" : 0.1636967205
        },
        "meters" : {
          "estimated_diameter_min" : 73.2073989347,
          "estimated_diameter_max" : 163.696720474
        },
        "miles" : {
          "estimated_diameter_min" : 0.0454889547,
          "estimated_diameter_max" : 0.1017163949
        },
        "feet" : {
          "estimated_diameter_min" : 240.181762721,
          "estimated_diameter_max" : 537.0627483999
        }
      },
      "is_potentially_hazardous_asteroid" : false,
      "close_approach_data" : [ {
        "close_approach_date" : "2012-05-08",
        "epoch_date_close_approach" : 1336460400000,
        "relative_velocity" : {
          "kilometers_per_second" : "17.2851803753",
          "kilometers_per_hour" : "62226.6493511369",
          "miles_per_hour" : "38665.2199815439"
        },
        "miss_distance" : {
          "astronomical" : "0.1917655067",
          "lunar" : "74.5967788696",
          "kilometers" : "28687712",
          "miles" : "17825718"
        },
        "orbiting_body" : "Earth"
      } ],
      "orbital_data" : {
        "orbit_id" : "28",
        "orbit_determination_date" : "2017-05-15 14:03:20",
        "orbit_uncertainty" : "0",
        "minimum_orbit_intersection" : ".0549457",
        "jupiter_tisserand_invariant" : "4.216",
        "epoch_osculation" : "2458000.5",
        "eccentricity" : ".4670850789201257",
        "semi_major_axis" : "1.605193536881799",
        "inclination" : "6.989170216458534",
        "ascending_node_longitude" : "26.69176582512296",
        "orbital_period" : "742.8301635819483",
        "perihelion_distance" : ".8554315870252881",
        "perihelion_argument" : "274.4560376594072",
        "aphelion_distance" : "2.35495548673831",
        "perihelion_time" : "2458332.327793475321",
        "mean_anomaly" : "199.1853057297977",
        "mean_motion" : ".4846329856397722",
        "equinox" : "J2000"
      }
    } ]
  }
}